NORAD_CAT_ID,OBJECT_NAME,OBJECT_TYPE,EPOCH,MEAN_MOTION,ECCENTRICITY,INCLINATION,RA_OF_ASC_NODE,ARG_OF_PERICENTER,MEAN_ANOMALY,BSTAR,MEAN_MOTION_DOT,MEAN_MOTION_DDOT,TLE_LINE0,TLE_LINE1,TLE_LINE2,SEMIMAJOR_AXIS,PERIOD,APOGEE,PERIGEE,DECAYED
52342.0,STARLINK-3850,PAYLOAD,2023-09-22 07:37:59,15.08846362,0.0001678,53.2163,276.6712,81.3221,278.7961,0.00032036,4.815e-05,0.0,0 STARLINK-3850,1 52342U 22045M   23265.31804998  .00004815  00000-0  32036-3 0  9994,2 52342  53.2163 276.6712 0001678  81.3221 278.7961 15.08846362 80009,6917.861,95.437,540.887,538.565,0.0
52342.0,STARLINK-3850,PAYLOAD,2023-09-23 01:07:13,15.08845384,0.000176,53.2167,273.4014,83.3374,276.7819,0.00015995,2.259e-05,0.0,0 STARLINK-3850,1 52342U 22045M   23266.04668971  .00002259  00000-0  15995-3 0  9999,2 52342  53.2167 273.4014 0001760  83.3374 276.7819 15.08845384 80111,6917.864,95.437,540.946,538.511,0.0
52342.0,STARLINK-3850,PAYLOAD,2023-09-23 05:53:23,15.08847431,0.0001798,53.2169,272.5099,80.9198,279.1998,0.00016802,2.387e-05,0.0,0 STARLINK-3850,1 52342U 22045M   23266.24540803  .00002387  00000-0  16802-3 0  9994,2 52342  53.2169 272.5099 0001798  80.9198 279.1998 15.08847431 80147,6917.858,95.437,540.967,538.479,0.0
52342.0,STARLINK-3850,PAYLOAD,2023-09-24 04:08:47,15.08837481,0.0001679,53.2174,268.3475,96.7622,263.3562,-3.5079e-05,-8.46e-06,0.0,0 STARLINK-3850,1 52342U 22045M   23267.17277025 -.00000846  00000-0 -35079-4 0  9998,2 52342  53.2174 268.3475 0001679  96.7622 263.3562 15.08837481 80280,6917.888,95.438,540.915,538.592,0.0
52342.0,STARLINK-3850,PAYLOAD,2023-09-24 05:44:10,15.08837499,0.0001682,53.2173,268.0501,96.9937,263.1247,-3.5043e-05,-8.46e-06,0.0,0 STARLINK-3850,1 52342U 22045M   23267.23901026 -.00000846  00000-0 -35043-4 0  9991,2 52342  53.2173 268.0501 0001682  96.9937 263.1247 15.08837499 80299,6917.888,95.438,540.917,538.589,0.0
52342.0,STARLINK-3850,PAYLOAD,2023-09-25 08:45:43,15.08846955,0.0001774,53.2169,262.9944,102.4583,257.6608,0.00016972,2.415e-05,0.0,0 STARLINK-3850,1 52342U 22045M   23268.36508837  .00002415  00000-0  16972-3 0  9990,2 52342  53.2169 262.9944 0001774 102.4583 257.6608 15.08846955 80465,6917.859,95.437,540.951,538.497,0.0
52342.0,STARLINK-3850,PAYLOAD,2023-09-25 16:42:39,15.08846851,0.0001623,53.2167,261.5066,101.462,258.6555,0.0001677,2.382e-05,0.0,0 STARLINK-3850,1 52342U 22045M   23268.69628803  .00002382  00000-0  16770-3 0  9991,2 52342  53.2167 261.5066 0001623 101.4620 258.6555 15.08846851 80510,6917.859,95.437,540.847,538.602,0.0
52342.0,STARLINK-3850,PAYLOAD,2023-09-26 08:36:30,15.08861693,0.0001533,53.2158,258.5322,94.7177,265.3991,0.00052003,8.003e-05,0.0,0 STARLINK-3850,1 52342U 22045M   23269.35868151  .00008003  00000-0  52003-3 0  9992,2 52342  53.2158 258.5322 0001533  94.7177 265.3991 15.08861693 80613,6917.814,95.436,540.74,538.619,0.0
52342.0,STARLINK-3850,PAYLOAD,2023-09-27 05:16:31,15.08833879,0.0001377,53.2147,254.6675,85.9897,274.1252,-0.00016332,-2.886e-05,0.0,0 STARLINK-3850,1 52342U 22045M   23270.21980822 -.00002886  00000-0 -16332-3 0  9999,2 52342  53.2147 254.6675 0001377  85.9897 274.1252 15.08833879 80743,6917.899,95.438,540.717,538.812,0.0
52342.0,STARLINK-3850,PAYLOAD,2023-09-28 05:07:19,15.08833028,0.0001412,53.2146,250.2074,82.5344,277.5808,1.0921e-05,-1.14e-06,0.0,0 STARLINK-3850,1 52342U 22045M   23271.21341681 -.00000114  00000-0  10921-4 0  9994,2 52342  53.2146 250.2074 0001412  82.5344 277.5808 15.08833028 80893,6917.902,95.438,540.744,538.79,0.0
52342.0,STARLINK-3850,PAYLOAD,2023-09-29 08:08:52,15.0884619,0.0001385,53.2152,245.1502,85.8601,274.2549,0.00038503,5.846e-05,0.0,0 STARLINK-3850,1 52342U 22045M   23272.33949673  .00005846  00000-0  38503-3 0  9994,2 52342  53.2152 245.1502 0001385  85.8601 274.2549 15.08846190 81060,6917.861,95.437,540.685,538.768,0.0
52342.0,STARLINK-3850,PAYLOAD,2023-09-30 04:48:52,15.08852576,0.0001523,53.2166,241.2815,103.243,256.8732,0.00026621,3.953e-05,0.0,0 STARLINK-3850,1 52342U 22045M   23273.20061039  .00003953  00000-0  26621-3 0  9997,2 52342  53.2166 241.2815 0001523 103.2430 256.8732 15.08852576 81197,6917.842,95.437,540.761,538.653,0.0
52342.0,STARLINK-3850,PAYLOAD,2023-10-01 04:39:40,15.08846506,0.0001373,53.2164,236.823,97.5559,262.559,0.00015012,2.102e-05,0.0,0 STARLINK-3850,1 52342U 22045M   23274.19421374  .00002102  00000-0  15012-3 0  9995,2 52342  53.2164 236.8230 0001373  97.5559 262.5590 15.08846506 81345,6917.861,95.437,540.675,538.776,0.0
52342.0,STARLINK-3850,PAYLOAD,2023-10-01 14:11:58,15.08841012,0.0001333,53.216,235.0406,104.5066,255.6074,5.4454e-05,5.79e-06,0.0,0 STARLINK-3850,1 52342U 22045M   23274.59165480  .00000579  00000-0  54454-4 0  9992,2 52342  53.2160 235.0406 0001333 104.5066 255.6074 15.08841012 81409,6917.877,95.437,540.664,538.82,0.0
52342.0,STARLINK-3850,PAYLOAD,2023-10-02 02:55:04,15.08835463,0.0001353,53.2163,232.6642,112.9152,247.1983,-8.6952e-05,-1.671e-05,0.0,0 STARLINK-3850,1 52342U 22045M   23275.12157934 -.00001671  00000-0 -86952-4 0  9991,2 52342  53.2163 232.6642 0001353 112.9152 247.1983 15.08835463 81484,6917.894,95.438,540.695,538.823,0.0
52342.0,STARLINK-3850,PAYLOAD,2023-10-02 14:02:46,15.08840283,0.000142,53.2164,230.5812,95.6468,264.4686,0.00018741,2.696e-05,0.0,0 STARLINK-3850,1 52342U 22045M   23275.58526080  .00002696  00000-0  18741-3 0  9999,2 52342  53.2164 230.5812 0001420  95.6468 264.4686 15.08840283 81559,6917.88,95.438,540.727,538.762,0.0
52342.0,STARLINK-3850,PAYLOAD,2023-10-03 04:21:14,15.08842618,0.0001458,53.2172,227.9051,101.6137,258.5019,0.00030755,4.61e-05,0.0,0 STARLINK-3850,1 52342U 22045M   23276.18142361  .00004610  00000-0  30755-3 0  9999,2 52342  53.2172 227.9051 0001458 101.6137 258.5019 15.08842618 81643,6917.872,95.437,540.746,538.729,0.0
52342.0,STARLINK-3850,PAYLOAD,2023-10-03 13:53:33,15.08843906,0.0001583,53.217,226.1175,83.1975,276.9197,0.00031995,4.808e-05,0.0,0 STARLINK-3850,1 52342U 22045M   23276.57886442  .00004808  00000-0  31995-3 0  9993,2 52342  53.2170 226.1175 0001583  83.1975 276.9197 15.08843906 81701,6917.868,95.437,540.829,538.638,0.0
52342.0,STARLINK-3850,PAYLOAD,2023-10-04 05:47:25,15.08842101,0.000177,53.2176,223.1441,80.7475,279.3718,0.00016581,2.352e-05,0.0,0 STARLINK-3850,1 52342U 22045M   23277.24126588  .00002352  00000-0  16581-3 0  9992,2 52342  53.2176 223.1441 0001770  80.7475 279.3718 15.08842101 81809,6917.874,95.437,540.963,538.515,0.0
52342.0,STARLINK-3850,PAYLOAD,2023-10-05 05:38:11,15.08864072,0.0001401,53.2176,218.6837,98.0563,262.0588,0.00049683,7.633e-05,0.0,0 STARLINK-3850,1 52342U 22045M   23278.23485608  .00007633  00000-0  49683-3 0  9999,2 52342  53.2176 218.6837 0001401  98.0563 262.0588 15.08864072 81959,6917.807,95.436,540.641,538.703,0.0
52342.0,STARLINK-3850,PAYLOAD,2023-10-05 13:35:08,15.08839673,0.0002029,53.2181,217.1972,84.9492,275.1732,2.7265e-05,1.46e-06,0.0,0 STARLINK-3850,1 52342U 22045M   23278.56606569  .00000146  00000-0  27265-4 0  9991,2 52342  53.2181 217.1972 0002029  84.9492 275.1732 15.08839673 82003,6917.881,95.438,541.15,538.343,0.0
52342.0,STARLINK-3850,PAYLOAD,2023-10-06 13:25:55,15.08831995,0.0002362,53.2147,212.7383,82.4198,277.7062,-2.1102e-05,-6.24e-06,0.0,0 STARLINK-3850,1 52342U 22045M   23279.55967142 -.00000624  00000-0 -21102-4 0  9995,2 52342  53.2147 212.7383 0002362  82.4198 277.7062 15.08831995 82157,6917.905,95.438,541.404,538.136,0.0
52342.0,STARLINK-3850,PAYLOAD,2023-10-07 05:19:46,15.08842252,0.0001598,53.2177,209.7627,90.9619,269.1556,0.00012782,1.747e-05,0.0,0 STARLINK-3850,1 52342U 22045M   23280.22206691  .00001747  00000-0  12782-3 0  9994,2 52342  53.2177 209.7627 0001598  90.9619 269.1556 15.08842252 82251,6917.874,95.437,540.844,538.633,0.0
52342.0,STARLINK-3850,PAYLOAD,2023-10-07 19:38:15,15.08838492,0.0001676,53.2167,207.0858,84.6406,275.4778,0.00017909,2.563e-05,0.0,0 STARLINK-3850,1 52342U 22045M   23280.81823143  .00002563  00000-0  17909-3 0  9999,2 52342  53.2167 207.0858 0001676  84.6406 275.4778 15.08838492 82345,6917.885,95.438,540.909,538.591,0.0
52342.0,STARLINK-3850,PAYLOAD,2023-10-08 01:59:47,15.08852794,0.0001318,53.216,205.8983,91.6043,268.51,0.00038294,5.814e-05,0.0,0 STARLINK-3850,1 52342U 22045M   23281.08318500  .00005814  00000-0  38294-3 0  9997,2 52342  53.2160 205.8983 0001318  91.6043 268.5100 15.08852794 82388,6917.841,95.437,540.618,538.795,0.0
52342.0,STARLINK-3850,PAYLOAD,2023-10-08 11:32:06,15.08849544,0.0001344,53.2171,204.1153,76.8006,283.3136,0.00045178,6.911e-05,0.0,0 STARLINK-3850,1 52342U 22045M   23281.48062764  .00006911  00000-0  45178-3 0  9997,2 52342  53.2171 204.1153 0001344  76.8006 283.3136 15.08849544 82444,6917.851,95.437,540.646,538.786,0.0
52342.0,STARLINK-3850,PAYLOAD,2023-10-08 19:29:01,15.0884934,0.000149,53.2186,202.6307,86.0344,274.0818,0.00026876,3.993e-05,0.0,0 STARLINK-3850,1 52342U 22045M   23281.81182658  .00003993  00000-0  26876-3 0  9990,2 52342  53.2186 202.6307 0001490  86.0344 274.0818 15.08849340 82497,6917.852,95.437,540.748,538.686,0.0
52342.0,STARLINK-3850,PAYLOAD,2023-10-09 03:25:57,15.08865492,0.0001465,53.2178,201.145,94.5821,265.5338,0.00045871,7.025e-05,0.0,0 STARLINK-3850,1 52342U 22045M   23282.14302135  .00007025  00000-0  45871-3 0  9997,2 52342  53.2178 201.1450 0001465  94.5821 265.5338 15.08865492 82541,6917.802,95.436,540.681,538.654,0.0
52342.0,STARLINK-3850,PAYLOAD,2023-10-09 11:22:53,15.08839681,0.0001603,53.2166,199.6534,86.0388,274.0787,0.00010867,1.442e-05,0.0,0 STARLINK-3850,1 52342U 22045M   23282.47422745  .00001442  00000-0  10867-3 0  9997,2 52342  53.2166 199.6534 0001603  86.0388 274.0787 15.08839681 82599,6917.881,95.438,540.855,538.637,0.0
52342.0,STARLINK-3850,PAYLOAD,2023-10-09 19:19:49,15.08836185,0.0001597,53.2172,198.1701,110.8045,249.3118,-3.8744e-05,-9.05e-06,0.0,0 STARLINK-3850,1 52342U 22045M   23282.80542839 -.00000905  00000-0 -38744-4 0  9991,2 52342  53.2172 198.1701 0001597 110.8045 249.3118 15.08836185 82649,6917.892,95.438,540.862,538.652,0.0
